{
  "type": "FeatureCollection",
  "features": [
    {
      "type": "Feature",
      "geometry": {
        "type": "Point",
        "coordinates": [
          143.7737,
          -38.6949
        ]
      },
      "properties": {
        "mongo_id": "6a012c7e29c3f904d39111f0",
        "time": "2026-05-11T01:10:21.788290+00:00",
        "iso": "2026-05-11T01:10:22.035Z",
        "ts": 1778461822035.0,
        "topic": "application/3a8594c3-7866-4007-9786-b5ec52b2d117/device/a840419f918523a7/event/up",
        "deduplication_id": "71cb70dd-f6ca-4b15-b197-8c2713eccf12",
        "tenant_name": "ChirpStack",
        "application_name": "monitoring",
        "device_profile_name": "LSN50v2-S31",
        "device_name": "LST25502631",
        "dev_eui": "a840419f918523a7",
        "device_class": "CLASS_A",
        "dev_addr": "01e453a1",
        "f_cnt": 50079,
        "f_port": 2,
        "confirmed": false,
        "adr": true,
        "dr": 2,
        "region_config_id": "au915_0",
        "raw_object_json": "{\"ADC_CH0V\": 0.554, \"EXTI_Trigger\": \"FALSE\", \"TempC1\": 0, \"Door_status\": \"OPEN\", \"Work_mode\": \"IIC\", \"TempC_SHT\": 11.3, \"Hum_SHT\": 100, \"Digital_IStatus\": \"L\", \"BatV\": 3.648}",
        "site": "Gully",
        "sensor_latitude": -38.6949,
        "sensor_longitude": 143.7737,
        "sensor_altitude": 179.0,
        "sensor_geojson": "{\"type\": \"Point\", \"coordinates\": [143.7737, -38.6949, 179.0]}",
        "raw_tags_json": "{\"alt\": \"179.0\", \"lat\": \"-38.6949\", \"site\": \"Gully\", \"geojson\": \"{\\\"type\\\":\\\"Point\\\",\\\"coordinates\\\":[143.7737,-38.6949,179.0]}\", \"lon\": \"143.7737\"}",
        "gateway_id": "a84041ffff26623c",
        "gateway_latitude": -38.69578,
        "gateway_longitude": 143.77339,
        "gateway_altitude": 161.0,
        "gateway_geojson": "{\"type\": \"Point\", \"coordinates\": [143.77339, -38.69578, 161.0]}",
        "rssi": -114,
        "snr": -4.0,
        "temperature_c": 11.3,
        "humidity": 100.0,
        "battery_v": 3.648,
        "door_status": "OPEN",
        "adc_ch0v": 0.554,
        "digital_status": "L",
        "work_mode": "IIC",
        "raw_tempc1": 0.0,
        "raw_tempc_sht": 11.3,
        "raw_hum_sht": 100.0,
        "tank_air_gap_mm": null,
        "tank_air_gap_m": null,
        "tank_distance": null,
        "tank_battery_v": null,
        "tank_temp_c": null,
        "interrupt_flag": null,
        "sensor_flag": null,
        "raw_distance": null,
        "raw_tank_object_json": null,
        "air_temperature": null,
        "air_humidity": null,
        "light_intensity": null,
        "uv_index": null,
        "wind_speed": null,
        "wind_direction": null,
        "rain_gauge": null,
        "rain_accumulation": null,
        "pressure": null,
        "wind_gust": null,
        "sensecap_payload_valid": null,
        "sensecap_payload_hex": null,
        "sensecap_err": null
      }
    },
    {
      "type": "Feature",
      "geometry": {
        "type": "Point",
        "coordinates": [
          143.7733,
          -38.6957
        ]
      },
      "properties": {
        "mongo_id": "6a012b4829c3f904d39111ef",
        "time": "2026-05-11T01:06:11.390+00:00",
        "iso": "2026-05-11T01:05:12.139Z",
        "ts": 1778461512140.0,
        "topic": "application/3a8594c3-7866-4007-9786-b5ec52b2d117/device/00137a100004579c/event/up",
        "deduplication_id": "4d80aeb2-36da-4f6a-b77b-a0bc6c06d1ad",
        "tenant_name": "ChirpStack",
        "application_name": "monitoring",
        "device_profile_name": "R711 - Wireless Temperature and Humidity Sensor",
        "device_name": "R71104579C",
        "dev_eui": "00137a100004579c",
        "device_class": "CLASS_A",
        "dev_addr": "01c3adaf",
        "f_cnt": 861,
        "f_port": 6,
        "confirmed": false,
        "adr": true,
        "dr": 0,
        "region_config_id": "au915_0",
        "raw_object_json": "{\"Volt\": 3.1, \"Temp\": 21.21, \"Device\": \"R711(R712)\", \"Humi\": 54.47}",
        "site": "Inside House",
        "sensor_latitude": -38.6957,
        "sensor_longitude": 143.7733,
        "sensor_altitude": 171.0,
        "sensor_geojson": "{\"type\": \"Point\", \"coordinates\": [143.7733, -38.6957, 171.0]}",
        "raw_tags_json": "{\"alt\": \"171.0\", \"geojson\": \"{\\\"type\\\":\\\"Point\\\",\\\"coordinates\\\":[143.7733,-38.6957,171.0]}\", \"lon\": \"143.7733\", \"lat\": \"-38.6957\", \"site\": \"Inside House\"}",
        "gateway_id": "b827ebfffe46b14f",
        "gateway_latitude": -38.15522466666667,
        "gateway_longitude": 144.36658016666667,
        "gateway_altitude": 24.0,
        "gateway_geojson": "{\"type\": \"Point\", \"coordinates\": [144.36658016666667, -38.15522466666667, 24.0]}",
        "rssi": -81,
        "snr": 9.5,
        "temperature_c": null,
        "humidity": null,
        "battery_v": null,
        "door_status": null,
        "adc_ch0v": null,
        "digital_status": null,
        "work_mode": null,
        "raw_tempc1": null,
        "raw_tempc_sht": null,
        "raw_hum_sht": null,
        "tank_air_gap_mm": null,
        "tank_air_gap_m": null,
        "tank_distance": null,
        "tank_battery_v": null,
        "tank_temp_c": null,
        "interrupt_flag": null,
        "sensor_flag": null,
        "raw_distance": null,
        "raw_tank_object_json": null,
        "air_temperature": null,
        "air_humidity": null,
        "light_intensity": null,
        "uv_index": null,
        "wind_speed": null,
        "wind_direction": null,
        "rain_gauge": null,
        "rain_accumulation": null,
        "pressure": null,
        "wind_gust": null,
        "sensecap_payload_valid": null,
        "sensecap_payload_hex": null,
        "sensecap_err": null
      }
    },
    {
      "type": "Feature",
      "geometry": {
        "type": "Point",
        "coordinates": [
          143.7723,
          -38.6958
        ]
      },
      "properties": {
        "mongo_id": "6a01292429c3f904d39111ee",
        "time": "2026-05-11T00:56:04.021755+00:00",
        "iso": "2026-05-11T00:56:04.269Z",
        "ts": 1778460964270.0,
        "topic": "application/3a8594c3-7866-4007-9786-b5ec52b2d117/device/a84041e2a18523a1/event/up",
        "deduplication_id": "2f309094-41f8-423c-9e63-2a8805bec2d2",
        "tenant_name": "ChirpStack",
        "application_name": "monitoring",
        "device_profile_name": "LSN50v2-S31",
        "device_name": "LST25502625",
        "dev_eui": "a84041e2a18523a1",
        "device_class": "CLASS_A",
        "dev_addr": "019dddaa",
        "f_cnt": 50076,
        "f_port": 2,
        "confirmed": false,
        "adr": true,
        "dr": 2,
        "region_config_id": "au915_0",
        "raw_object_json": "{\"Digital_IStatus\": \"L\", \"BatV\": 3.657, \"Door_status\": \"OPEN\", \"Work_mode\": \"IIC\", \"TempC_SHT\": 13.9, \"Hum_SHT\": 83.2, \"EXTI_Trigger\": \"FALSE\", \"ADC_CH0V\": 0.297, \"TempC1\": 0}",
        "site": "Top Gate",
        "sensor_latitude": -38.6958,
        "sensor_longitude": 143.7723,
        "sensor_altitude": 181.0,
        "sensor_geojson": "{\"type\": \"Point\", \"coordinates\": [143.7723, -38.6958, 181.0]}",
        "raw_tags_json": "{\"geojson\": \"{\\\"type\\\":\\\"Point\\\",\\\"coordinates\\\":[143.7723,-38.6958,181.0]}\", \"lon\": \"143.7723\", \"lat\": \"-38.6958\", \"site\": \"Top Gate\", \"alt\": \"181.0\"}",
        "gateway_id": "a84041ffff26623c",
        "gateway_latitude": -38.69569,
        "gateway_longitude": 143.77361,
        "gateway_altitude": 173.0,
        "gateway_geojson": "{\"type\": \"Point\", \"coordinates\": [143.77361, -38.69569, 173.0]}",
        "rssi": -99,
        "snr": 10.5,
        "temperature_c": 13.9,
        "humidity": 83.2,
        "battery_v": 3.657,
        "door_status": "OPEN",
        "adc_ch0v": 0.297,
        "digital_status": "L",
        "work_mode": "IIC",
        "raw_tempc1": 0.0,
        "raw_tempc_sht": 13.9,
        "raw_hum_sht": 83.2,
        "tank_air_gap_mm": null,
        "tank_air_gap_m": null,
        "tank_distance": null,
        "tank_battery_v": null,
        "tank_temp_c": null,
        "interrupt_flag": null,
        "sensor_flag": null,
        "raw_distance": null,
        "raw_tank_object_json": null,
        "air_temperature": null,
        "air_humidity": null,
        "light_intensity": null,
        "uv_index": null,
        "wind_speed": null,
        "wind_direction": null,
        "rain_gauge": null,
        "rain_accumulation": null,
        "pressure": null,
        "wind_gust": null,
        "sensecap_payload_valid": null,
        "sensecap_payload_hex": null,
        "sensecap_err": null
      }
    },
    {
      "type": "Feature",
      "geometry": {
        "type": "Point",
        "coordinates": [
          143.775,
          -38.6958
        ]
      },
      "properties": {
        "mongo_id": "6a0128ae29c3f904d39111ed",
        "time": "2026-05-11T00:54:06.433368+00:00",
        "iso": "2026-05-11T00:54:06.678Z",
        "ts": 1778460846679.0,
        "topic": "application/3a8594c3-7866-4007-9786-b5ec52b2d117/device/ab4041cd218523a2/event/up",
        "deduplication_id": "b45a9518-0366-4f57-aa2c-0e0884f2130f",
        "tenant_name": "ChirpStack",
        "application_name": "monitoring",
        "device_profile_name": "LSN50v2-S31",
        "device_name": "LST25502626",
        "dev_eui": "ab4041cd218523a2",
        "device_class": "CLASS_A",
        "dev_addr": "01b972d1",
        "f_cnt": 50078,
        "f_port": 2,
        "confirmed": false,
        "adr": true,
        "dr": 2,
        "region_config_id": "au915_0",
        "raw_object_json": "{\"Digital_IStatus\": \"L\", \"TempC1\": 0, \"ADC_CH0V\": 0.303, \"BatV\": 3.661, \"Door_status\": \"OPEN\", \"Work_mode\": \"IIC\", \"EXTI_Trigger\": \"FALSE\", \"TempC_SHT\": 13.4, \"Hum_SHT\": 85.3}",
        "site": "Top Paddock",
        "sensor_latitude": -38.6958,
        "sensor_longitude": 143.775,
        "sensor_altitude": 165.0,
        "sensor_geojson": "{\"type\": \"Point\", \"coordinates\": [143.775, -38.6958, 165.0]}",
        "raw_tags_json": "{\"site\": \"Top Paddock\", \"alt\": \"165.0\", \"geojson\": \"{\\\"type\\\":\\\"Point\\\",\\\"coordinates\\\":[143.775,-38.6958,165.0]}\", \"lat\": \"-38.6958\", \"lon\": \"143.775\"}",
        "gateway_id": "a84041ffff26623c",
        "gateway_latitude": -38.69573,
        "gateway_longitude": 143.77363,
        "gateway_altitude": 173.0,
        "gateway_geojson": "{\"type\": \"Point\", \"coordinates\": [143.77363, -38.69573, 173.0]}",
        "rssi": -80,
        "snr": -2.0,
        "temperature_c": 13.4,
        "humidity": 85.3,
        "battery_v": 3.661,
        "door_status": "OPEN",
        "adc_ch0v": 0.303,
        "digital_status": "L",
        "work_mode": "IIC",
        "raw_tempc1": 0.0,
        "raw_tempc_sht": 13.4,
        "raw_hum_sht": 85.3,
        "tank_air_gap_mm": null,
        "tank_air_gap_m": null,
        "tank_distance": null,
        "tank_battery_v": null,
        "tank_temp_c": null,
        "interrupt_flag": null,
        "sensor_flag": null,
        "raw_distance": null,
        "raw_tank_object_json": null,
        "air_temperature": null,
        "air_humidity": null,
        "light_intensity": null,
        "uv_index": null,
        "wind_speed": null,
        "wind_direction": null,
        "rain_gauge": null,
        "rain_accumulation": null,
        "pressure": null,
        "wind_gust": null,
        "sensecap_payload_valid": null,
        "sensecap_payload_hex": null,
        "sensecap_err": null
      }
    },
    {
      "type": "Feature",
      "geometry": {
        "type": "Point",
        "coordinates": [
          143.7737,
          -38.6956
        ]
      },
      "properties": {
        "mongo_id": "6a0127db29c3f904d39111ec",
        "time": "2026-05-11T00:50:35.440439+00:00",
        "iso": "2026-05-11T00:50:35.686Z",
        "ts": 1778460635686.0,
        "topic": "application/3a8594c3-7866-4007-9786-b5ec52b2d117/device/a8404142118523b1/event/up",
        "deduplication_id": "88dfb699-2563-4049-8ba9-0cef595fa3b6",
        "tenant_name": "ChirpStack",
        "application_name": "monitoring",
        "device_profile_name": "LSN50v2-S31",
        "device_name": "LST25502641",
        "dev_eui": "a8404142118523b1",
        "device_class": "CLASS_A",
        "dev_addr": "01eeaa71",
        "f_cnt": 50078,
        "f_port": 2,
        "confirmed": false,
        "adr": true,
        "dr": 2,
        "region_config_id": "au915_0",
        "raw_object_json": "{\"TempC1\": 0, \"Digital_IStatus\": \"L\", \"Door_status\": \"OPEN\", \"TempC_SHT\": 16.8, \"BatV\": 3.694, \"EXTI_Trigger\": \"FALSE\", \"ADC_CH0V\": 0.577, \"Work_mode\": \"IIC\", \"Hum_SHT\": 82.4}",
        "site": "Outside Shed",
        "sensor_latitude": -38.6956,
        "sensor_longitude": 143.7737,
        "sensor_altitude": 171.0,
        "sensor_geojson": "{\"type\": \"Point\", \"coordinates\": [143.7737, -38.6956, 171.0]}",
        "raw_tags_json": "{\"alt\": \"171.0\", \"lon\": \"143.7737\", \"geojson\": \"{\\\"type\\\":\\\"Point\\\",\\\"coordinates\\\":[143.7737,-38.6956,171.0]}\", \"site\": \"Outside Shed\", \"lat\": \"-38.6956\"}",
        "gateway_id": "a84041ffff26623c",
        "gateway_latitude": -38.69568,
        "gateway_longitude": 143.77364,
        "gateway_altitude": 177.0,
        "gateway_geojson": "{\"type\": \"Point\", \"coordinates\": [143.77364, -38.69568, 177.0]}",
        "rssi": -79,
        "snr": 1.5,
        "temperature_c": 16.8,
        "humidity": 82.4,
        "battery_v": 3.694,
        "door_status": "OPEN",
        "adc_ch0v": 0.577,
        "digital_status": "L",
        "work_mode": "IIC",
        "raw_tempc1": 0.0,
        "raw_tempc_sht": 16.8,
        "raw_hum_sht": 82.4,
        "tank_air_gap_mm": null,
        "tank_air_gap_m": null,
        "tank_distance": null,
        "tank_battery_v": null,
        "tank_temp_c": null,
        "interrupt_flag": null,
        "sensor_flag": null,
        "raw_distance": null,
        "raw_tank_object_json": null,
        "air_temperature": null,
        "air_humidity": null,
        "light_intensity": null,
        "uv_index": null,
        "wind_speed": null,
        "wind_direction": null,
        "rain_gauge": null,
        "rain_accumulation": null,
        "pressure": null,
        "wind_gust": null,
        "sensecap_payload_valid": null,
        "sensecap_payload_hex": null,
        "sensecap_err": null
      }
    },
    {
      "type": "Feature",
      "geometry": {
        "type": "Point",
        "coordinates": [
          143.7734,
          -38.6958
        ]
      },
      "properties": {
        "mongo_id": "6a0124a329c3f904d39111ea",
        "time": "2026-05-11T00:36:51.676005+00:00",
        "iso": "2026-05-11T00:36:51.922Z",
        "ts": 1778459811922.0,
        "topic": "application/3a8594c3-7866-4007-9786-b5ec52b2d117/device/2cf7f1c073400187/event/up",
        "deduplication_id": "e2573163-dfaa-49cb-b292-eb2268e9feba",
        "tenant_name": "ChirpStack",
        "application_name": "monitoring",
        "device_profile_name": "SenseCAP S2120",
        "device_name": "1254000489",
        "dev_eui": "2cf7f1c073400187",
        "device_class": "CLASS_A",
        "dev_addr": "0098cf41",
        "f_cnt": 180,
        "f_port": 3,
        "confirmed": true,
        "adr": true,
        "dr": 5,
        "region_config_id": "au915_0",
        "raw_object_json": "{\"messages\": [[{\"measurementId\": \"4097\", \"type\": \"Air Temperature\", \"measurementValue\": 13}, {\"measurementValue\": 82, \"type\": \"Air Humidity\", \"measurementId\": \"4098\"}, {\"type\": \"Light Intensity\", \"measurementValue\": 11131, \"measurementId\": \"4099\"}, {\"type\": \"UV Index\", \"measurementId\": \"4190\", \"measurementValue\": 1.3}, {\"measurementValue\": 0, \"measurementId\": \"4105\", \"type\": \"Wind Speed\"}], [{\"measurementValue\": 216, \"measurementId\": \"4104\", \"type\": \"Wind Direction Sensor\"}, {\"measurementId\": \"4113\", \"type\": \"Rain Gauge\", \"measurementValue\": 0}, {\"type\": \"Barometric Pressure\", \"measurementId\": \"4101\", \"measurementValue\": 101360}], [{\"type\": \"Peak Wind Gust\", \"measurementValue\": 2, \"measurementId\": \"4191\"}, {\"measurementId\": \"4213\", \"measurementValue\": 135.89, \"type\": \"Rain Accumulation\"}]], \"err\": 0, \"valid\": true, \"payload\": \"4A00825200002B7B0D00004B00D80000000027984C0014000212D2\"}",
        "site": "Weather Station",
        "sensor_latitude": -38.6958,
        "sensor_longitude": 143.7734,
        "sensor_altitude": 168.0,
        "sensor_geojson": "{\"type\": \"Point\", \"coordinates\": [143.7734, -38.6958, 168.0]}",
        "raw_tags_json": "{\"lat\": \"-38.6958\", \"lon\": \"143.7734\", \"site\": \"Weather Station\", \"alt\": \"168.0\", \"geojson\": \"{\\\"type\\\":\\\"Point\\\",\\\"coordinates\\\":[143.7734,-38.6958,168.0]}\"}",
        "gateway_id": "a84041ffff26623c",
        "gateway_latitude": -38.6957,
        "gateway_longitude": 143.77353,
        "gateway_altitude": 171.0,
        "gateway_geojson": "{\"type\": \"Point\", \"coordinates\": [143.77353, -38.6957, 171.0]}",
        "rssi": -67,
        "snr": 14.8,
        "temperature_c": null,
        "humidity": null,
        "battery_v": null,
        "door_status": null,
        "adc_ch0v": null,
        "digital_status": null,
        "work_mode": null,
        "raw_tempc1": null,
        "raw_tempc_sht": null,
        "raw_hum_sht": null,
        "tank_air_gap_mm": null,
        "tank_air_gap_m": null,
        "tank_distance": null,
        "tank_battery_v": null,
        "tank_temp_c": null,
        "interrupt_flag": null,
        "sensor_flag": null,
        "raw_distance": null,
        "raw_tank_object_json": null,
        "air_temperature": 13.0,
        "air_humidity": 82.0,
        "light_intensity": 11131.0,
        "uv_index": 1.3,
        "wind_speed": 0.0,
        "wind_direction": 216.0,
        "rain_gauge": 0.0,
        "rain_accumulation": 135.89,
        "pressure": 101360.0,
        "wind_gust": 2.0,
        "sensecap_payload_valid": true,
        "sensecap_payload_hex": "4A00825200002B7B0D00004B00D80000000027984C0014000212D2",
        "sensecap_err": 0.0
      }
    },
    {
      "type": "Feature",
      "geometry": {
        "type": "Point",
        "coordinates": [
          143.7737,
          -38.6955
        ]
      },
      "properties": {
        "mongo_id": "6a009a9429c3f904d3911169",
        "time": "2026-05-10T14:47:48.326302+00:00",
        "iso": "2026-05-10T14:47:48.549Z",
        "ts": 1778424468549.0,
        "topic": "application/3a8594c3-7866-4007-9786-b5ec52b2d117/device/2cf7f127325000dc/event/up",
        "deduplication_id": "72c8d82a-b6ec-4d20-969e-86d29076ba46",
        "tenant_name": "ChirpStack",
        "application_name": "monitoring",
        "device_profile_name": "SenseCAP Wireless Barometric Pressure Sensor - LoRaWAN®",
        "device_name": "1000241",
        "dev_eui": "2cf7f127325000dc",
        "device_class": "CLASS_A",
        "dev_addr": "00016dcf",
        "f_cnt": 1259,
        "f_port": 2,
        "confirmed": true,
        "adr": true,
        "dr": 0,
        "region_config_id": "au915_0",
        "raw_object_json": "{\"err\": 0, \"messages\": [{\"measurementId\": 4101, \"measurementValue\": 101318, \"type\": \"report_telemetry\"}], \"payload\": \"01051070FD090632A4\", \"valid\": true}",
        "site": "Barometer",
        "sensor_latitude": -38.6955,
        "sensor_longitude": 143.7737,
        "sensor_altitude": 171.0,
        "sensor_geojson": "{\"type\": \"Point\", \"coordinates\": [143.7737, -38.6955, 171.0]}",
        "raw_tags_json": "{\"site\": \"Barometer\", \"alt\": \"171.0\", \"geojson\": \"{\\\"type\\\":\\\"Point\\\",\\\"coordinates\\\":[143.7737,-38.6955,171.0]}\", \"lon\": \"143.7737\", \"lat\": \"-38.6955\"}",
        "gateway_id": "a84041ffff26623c",
        "gateway_latitude": -38.6957,
        "gateway_longitude": 143.77352,
        "gateway_altitude": 167.0,
        "gateway_geojson": "{\"type\": \"Point\", \"coordinates\": [143.77352, -38.6957, 167.0]}",
        "rssi": -114,
        "snr": -18.0,
        "temperature_c": null,
        "humidity": null,
        "battery_v": null,
        "door_status": null,
        "adc_ch0v": null,
        "digital_status": null,
        "work_mode": null,
        "raw_tempc1": null,
        "raw_tempc_sht": null,
        "raw_hum_sht": null,
        "tank_air_gap_mm": null,
        "tank_air_gap_m": null,
        "tank_distance": null,
        "tank_battery_v": null,
        "tank_temp_c": null,
        "interrupt_flag": null,
        "sensor_flag": null,
        "raw_distance": null,
        "raw_tank_object_json": null,
        "air_temperature": null,
        "air_humidity": null,
        "light_intensity": null,
        "uv_index": null,
        "wind_speed": null,
        "wind_direction": null,
        "rain_gauge": null,
        "rain_accumulation": null,
        "pressure": null,
        "wind_gust": null,
        "sensecap_payload_valid": null,
        "sensecap_payload_hex": null,
        "sensecap_err": null
      }
    },
    {
      "type": "Feature",
      "geometry": {
        "type": "Point",
        "coordinates": [
          143.7737,
          -38.6957
        ]
      },
      "properties": {
        "mongo_id": "69d8222f9df0814089b440b1",
        "time": "2026-04-09T22:03:27.465855+00:00",
        "iso": "2026-04-09T22:03:27.697Z",
        "ts": 1775772207697.0,
        "topic": "application/3a8594c3-7866-4007-9786-b5ec52b2d117/device/a840411ca1887b91/event/up",
        "deduplication_id": "bdc08344-bac6-4d2c-8070-e89dab5a23d6",
        "tenant_name": "ChirpStack",
        "application_name": "monitoring",
        "device_profile_name": "LDDS75-AU915_1",
        "device_name": "LA66N721745",
        "dev_eui": "a840411ca1887b91",
        "device_class": "CLASS_A",
        "dev_addr": "019dd9b5",
        "f_cnt": 206,
        "f_port": 2,
        "confirmed": false,
        "adr": true,
        "dr": 5,
        "region_config_id": "au915_0",
        "raw_object_json": "{\"distance\": \"No Sensor\"}",
        "site": "Tank3",
        "sensor_latitude": -38.6957,
        "sensor_longitude": 143.7737,
        "sensor_altitude": 171.0,
        "sensor_geojson": "{\"type\": \"Point\", \"coordinates\": [143.7737, -38.6957, 171]}",
        "raw_tags_json": "{\"alt\": \"171.0\", \"lon\": \"143.7737\", \"geojson\": \"{\\\"type\\\":\\\"Point\\\",\\\"coordinates\\\":[143.7737,-38.6957,171]}\", \"lat\": \"-38.6957\", \"site\": \"Tank3\", \"location_updated_at\": \"2026-05-07T05:06:15.095Z\"}",
        "gateway_id": "a84041ffff26623c",
        "gateway_latitude": -38.6919,
        "gateway_longitude": 143.76234,
        "gateway_altitude": -1001.0,
        "gateway_geojson": "{\"type\": \"Point\", \"coordinates\": [143.76234, -38.6919, -1001.0]}",
        "rssi": -51,
        "snr": 8.5,
        "temperature_c": null,
        "humidity": null,
        "battery_v": null,
        "door_status": null,
        "adc_ch0v": null,
        "digital_status": null,
        "work_mode": null,
        "raw_tempc1": null,
        "raw_tempc_sht": null,
        "raw_hum_sht": null,
        "tank_air_gap_mm": null,
        "tank_air_gap_m": null,
        "tank_distance": null,
        "tank_battery_v": null,
        "tank_temp_c": null,
        "interrupt_flag": null,
        "sensor_flag": null,
        "raw_distance": null,
        "raw_tank_object_json": "{\"distance\": \"No Sensor\"}",
        "air_temperature": null,
        "air_humidity": null,
        "light_intensity": null,
        "uv_index": null,
        "wind_speed": null,
        "wind_direction": null,
        "rain_gauge": null,
        "rain_accumulation": null,
        "pressure": null,
        "wind_gust": null,
        "sensecap_payload_valid": null,
        "sensecap_payload_hex": null,
        "sensecap_err": null
      }
    },
    {
      "type": "Feature",
      "geometry": {
        "type": "Point",
        "coordinates": [
          143.7735,
          -38.6955
        ]
      },
      "properties": {
        "mongo_id": "69d821469df0814089b440b0",
        "time": "2026-04-09T21:59:33.920055+00:00",
        "iso": "2026-04-09T21:59:34.146Z",
        "ts": 1775771974146.0,
        "topic": "application/3a8594c3-7866-4007-9786-b5ec52b2d117/device/a84041675186988f/event/up",
        "deduplication_id": "ea3f6022-33ae-46aa-9711-3b0d8642ed56",
        "tenant_name": "ChirpStack",
        "application_name": "monitoring",
        "device_profile_name": "LSN50-V2",
        "device_name": "LST25598095",
        "dev_eui": "a84041675186988f",
        "device_class": "CLASS_A",
        "dev_addr": "00a0fd5c",
        "f_cnt": 43980,
        "f_port": 2,
        "confirmed": false,
        "adr": true,
        "dr": 5,
        "region_config_id": "au915_0",
        "raw_object_json": "{\"TempC_SHT\": -0.1, \"Hum_SHT\": 6553.5, \"BatV\": 3.667, \"TempC1\": 16.9, \"EXTI_Trigger\": \"FALSE\", \"Digital_IStatus\": \"L\", \"ADC_CH0V\": 0.058, \"Work_mode\": \"IIC\", \"Door_status\": \"OPEN\"}",
        "site": "Inside Shed",
        "sensor_latitude": -38.6955,
        "sensor_longitude": 143.7735,
        "sensor_altitude": 171.0,
        "sensor_geojson": "{\"type\": \"Point\", \"coordinates\": [143.7735, -38.6955, 171]}",
        "raw_tags_json": "{\"lon\": \"143.7735\", \"site\": \"Inside Shed\", \"lat\": \"-38.6955\", \"alt\": \"171.0\", \"geojson\": \"{\\\"type\\\":\\\"Point\\\",\\\"coordinates\\\":[143.7735,-38.6955,171]}\", \"location_updated_at\": \"2026-05-07T05:06:33.158Z\"}",
        "gateway_id": "a84041ffff26623c",
        "gateway_latitude": -38.6919,
        "gateway_longitude": 143.76234,
        "gateway_altitude": -1001.0,
        "gateway_geojson": "{\"type\": \"Point\", \"coordinates\": [143.76234, -38.6919, -1001.0]}",
        "rssi": -89,
        "snr": 13.2,
        "temperature_c": 16.9,
        "humidity": null,
        "battery_v": 3.667,
        "door_status": "OPEN",
        "adc_ch0v": 0.058,
        "digital_status": "L",
        "work_mode": "IIC",
        "raw_tempc1": 16.9,
        "raw_tempc_sht": -0.1,
        "raw_hum_sht": 6553.5,
        "tank_air_gap_mm": null,
        "tank_air_gap_m": null,
        "tank_distance": null,
        "tank_battery_v": null,
        "tank_temp_c": null,
        "interrupt_flag": null,
        "sensor_flag": null,
        "raw_distance": null,
        "raw_tank_object_json": null,
        "air_temperature": null,
        "air_humidity": null,
        "light_intensity": null,
        "uv_index": null,
        "wind_speed": null,
        "wind_direction": null,
        "rain_gauge": null,
        "rain_accumulation": null,
        "pressure": null,
        "wind_gust": null,
        "sensecap_payload_valid": null,
        "sensecap_payload_hex": null,
        "sensecap_err": null
      }
    },
    {
      "type": "Feature",
      "geometry": {
        "type": "Point",
        "coordinates": [
          143.7728,
          -38.6951
        ]
      },
      "properties": {
        "mongo_id": "69d820ae9df0814089b440af",
        "time": "2026-04-09T21:57:02.262319+00:00",
        "iso": "2026-04-09T21:57:02.488Z",
        "ts": 1775771822489.0,
        "topic": "application/3a8594c3-7866-4007-9786-b5ec52b2d117/device/a84041fba55fcaca/event/up",
        "deduplication_id": "31d43713-0edb-45d6-b799-7f0981dafe28",
        "tenant_name": "ChirpStack",
        "application_name": "monitoring",
        "device_profile_name": "LDDS75-AU915_1",
        "device_name": "LA666277834",
        "dev_eui": "a84041fba55fcaca",
        "device_class": "CLASS_A",
        "dev_addr": "01687aed",
        "f_cnt": 203,
        "f_port": 2,
        "confirmed": false,
        "adr": true,
        "dr": 5,
        "region_config_id": "au915_0",
        "raw_object_json": "{\"distance\": \"No Sensor\"}",
        "site": "Tank1",
        "sensor_latitude": -38.6951,
        "sensor_longitude": 143.7728,
        "sensor_altitude": 171.0,
        "sensor_geojson": "{\"type\": \"Point\", \"coordinates\": [143.7728, -38.6951, 171]}",
        "raw_tags_json": "{\"site\": \"Tank1\", \"lon\": \"143.7728\", \"geojson\": \"{\\\"type\\\":\\\"Point\\\",\\\"coordinates\\\":[143.7728,-38.6951,171]}\", \"lat\": \"-38.6951\", \"alt\": \"171.0\", \"location_updated_at\": \"2026-05-07T05:06:11.078Z\"}",
        "gateway_id": "a84041ffff26623c",
        "gateway_latitude": -38.6919,
        "gateway_longitude": 143.76234,
        "gateway_altitude": -1001.0,
        "gateway_geojson": "{\"type\": \"Point\", \"coordinates\": [143.76234, -38.6919, -1001.0]}",
        "rssi": -69,
        "snr": 13.5,
        "temperature_c": null,
        "humidity": null,
        "battery_v": null,
        "door_status": null,
        "adc_ch0v": null,
        "digital_status": null,
        "work_mode": null,
        "raw_tempc1": null,
        "raw_tempc_sht": null,
        "raw_hum_sht": null,
        "tank_air_gap_mm": null,
        "tank_air_gap_m": null,
        "tank_distance": null,
        "tank_battery_v": null,
        "tank_temp_c": null,
        "interrupt_flag": null,
        "sensor_flag": null,
        "raw_distance": null,
        "raw_tank_object_json": "{\"distance\": \"No Sensor\"}",
        "air_temperature": null,
        "air_humidity": null,
        "light_intensity": null,
        "uv_index": null,
        "wind_speed": null,
        "wind_direction": null,
        "rain_gauge": null,
        "rain_accumulation": null,
        "pressure": null,
        "wind_gust": null,
        "sensecap_payload_valid": null,
        "sensecap_payload_hex": null,
        "sensecap_err": null
      }
    },
    {
      "type": "Feature",
      "geometry": {
        "type": "Point",
        "coordinates": [
          143.7736,
          -38.6956
        ]
      },
      "properties": {
        "mongo_id": "69d81e299df0814089b440a9",
        "time": "2026-04-09T21:46:16.939803+00:00",
        "iso": "2026-04-09T21:46:17.158Z",
        "ts": 1775771177158.0,
        "topic": "application/3a8594c3-7866-4007-9786-b5ec52b2d117/device/a840414c305fcacd/event/up",
        "deduplication_id": "4835e62a-fe19-4f92-ba02-350f058e7d6a",
        "tenant_name": "ChirpStack",
        "application_name": "monitoring",
        "device_profile_name": "LDDS75-AU915_1",
        "device_name": "LA666277837",
        "dev_eui": "a840414c305fcacd",
        "device_class": "CLASS_A",
        "dev_addr": "011ea09f",
        "f_cnt": 205,
        "f_port": 2,
        "confirmed": false,
        "adr": true,
        "dr": 5,
        "region_config_id": "au915_0",
        "raw_object_json": "{\"distance\": \"No Sensor\"}",
        "site": "Tank2",
        "sensor_latitude": -38.6956,
        "sensor_longitude": 143.7736,
        "sensor_altitude": 171.0,
        "sensor_geojson": "{\"type\": \"Point\", \"coordinates\": [143.7736, -38.6956, 171]}",
        "raw_tags_json": "{\"lat\": \"-38.6956\", \"site\": \"Tank2\", \"alt\": \"171.0\", \"lon\": \"143.7736\", \"geojson\": \"{\\\"type\\\":\\\"Point\\\",\\\"coordinates\\\":[143.7736,-38.6956,171]}\", \"location_updated_at\": \"2026-05-07T05:06:12.357Z\"}",
        "gateway_id": "a84041ffff26623c",
        "gateway_latitude": -38.6957,
        "gateway_longitude": 143.77368,
        "gateway_altitude": 199.0,
        "gateway_geojson": "{\"type\": \"Point\", \"coordinates\": [143.77368, -38.6957, 199.0]}",
        "rssi": -100,
        "snr": 12.8,
        "temperature_c": null,
        "humidity": null,
        "battery_v": null,
        "door_status": null,
        "adc_ch0v": null,
        "digital_status": null,
        "work_mode": null,
        "raw_tempc1": null,
        "raw_tempc_sht": null,
        "raw_hum_sht": null,
        "tank_air_gap_mm": null,
        "tank_air_gap_m": null,
        "tank_distance": null,
        "tank_battery_v": null,
        "tank_temp_c": null,
        "interrupt_flag": null,
        "sensor_flag": null,
        "raw_distance": null,
        "raw_tank_object_json": "{\"distance\": \"No Sensor\"}",
        "air_temperature": null,
        "air_humidity": null,
        "light_intensity": null,
        "uv_index": null,
        "wind_speed": null,
        "wind_direction": null,
        "rain_gauge": null,
        "rain_accumulation": null,
        "pressure": null,
        "wind_gust": null,
        "sensecap_payload_valid": null,
        "sensecap_payload_hex": null,
        "sensecap_err": null
      }
    }
  ]
}